     2              NAVIGATION DATA                         RINEX VERSION / TYPE
CCRINEXN V1.6.0 UX  CDDIS               21-JAN-23 13:18     PGM / RUN BY / DATE 
IGS BROADCAST EPHEMERIS FILE                                COMMENT             
    0.2887D-07  0.2235D-07 -0.1192D-06  0.5960D-07          ION ALPHA           
    0.1475D+06 -0.1311D+06  0.0000D+00 -0.1311D+06          ION BETA            
   -0.186264514923D-08 0.532907051820D-14   147456     2246 DELTA-UTC: A0,A1,T,W
    18                                                      LEAP SECONDS        
                                                            END OF HEADER       
 2 23  1 21  4  0  0.0-0.626035034657D-03 0.238742359215D-11 0.000000000000D+00
    0.102000000000D+03 0.431875000000D+02 0.464769359509D-08 0.166669825503D+01
    0.182352960110D-05 0.200977628119D-01-0.170618295670D-05 0.515368848228D+04
    0.532800000000D+06 0.404193997383D-06-0.173483047833D+01-0.335276126862D-06
    0.966795911982D+00 0.411875000000D+03-0.133763920677D+01-0.835213361417D-08
    0.921466954226D-10 0.100000000000D+01 0.224500000000D+04 0.000000000000D+00
    0.282842707634D+01 0.000000000000D+00-0.176951289177D-07 0.102000000000D+03
    0.528289000000D+06 0.400000000000D+01 0.000000000000D+00 0.000000000000D+00
 3 23  1 21  4  0  0.0-0.370840542018D-03 0.261479726760D-11 0.000000000000D+00
    0.200000000000D+01-0.179781250000D+03 0.395266464435D-08 0.149717406306D+01
   -0.938773155212D-05 0.442720472347D-02 0.590085983276D-05 0.515374563599D+04
    0.532800000000D+06-0.633299350738D-07-0.606383401571D+00-0.242143869400D-07
    0.977352286417D+00 0.274906250000D+03 0.102802269821D+01-0.793675916930D-08
   -0.308227124611D-09 0.100000000000D+01 0.224500000000D+04 0.000000000000D+00
    0.200000000000D+01 0.000000000000D+00 0.186264514923D-08 0.258000000000D+03
    0.528468000000D+06 0.400000000000D+01 0.000000000000D+00 0.000000000000D+00
 4 23  1 21  4  0  0.0-0.444785691798D-04 0.773070496507D-11 0.000000000000D+00
    0.180000000000D+03-0.453750000000D+02 0.420481800469D-08-0.181811293728D+01
   -0.247173011303D-05 0.229011208285D-02 0.113733112812D-04 0.515371987343D+04
    0.532800000000D+06 0.745058059692D-08 0.474387062342D+00-0.186264514923D-08
    0.962580694938D+00 0.162062500000D+03-0.307075044330D+01-0.759460205995D-08
    0.654670126781D-09 0.100000000000D+01 0.224500000000D+04 0.000000000000D+00
    0.200000000000D+01 0.000000000000D+00-0.465661287308D-08 0.180000000000D+03
    0.525618000000D+06 0.400000000000D+01 0.000000000000D+00 0.000000000000D+00
 5 23  1 21  4  0  0.0-0.112782698125D-03-0.147792889038D-11 0.000000000000D+00
    0.600000000000D+02-0.164125000000D+03 0.432839458072D-08-0.107401493498D+01
   -0.851787626743D-05 0.578109873459D-02 0.608712434769D-05 0.515360412407D+04
    0.532800000000D+06-0.931322574616D-08-0.651281257119D+00 0.149011611938D-06
    0.964345282817D+00 0.261968750000D+03 0.113673605984D+01-0.811748098281D-08
   -0.326085011321D-09 0.100000000000D+01 0.224500000000D+04 0.000000000000D+00
    0.200000000000D+01 0.000000000000D+00-0.111758708954D-07 0.600000000000D+02
    0.529513000000D+06 0.400000000000D+01 0.000000000000D+00 0.000000000000D+00
 6 23  1 21  4  0  0.0 0.561657827347D-03 0.568434188608D-11 0.000000000000D+00
    0.100000000000D+03 0.303750000000D+02 0.423339062343D-08 0.290954179807D+01
    0.173225998879D-05 0.286614440847D-02-0.981613993645D-06 0.515359787941D+04
    0.532800000000D+06 0.540167093277D-07-0.164683266137D+01 0.117346644402D-06
    0.988309474074D+00 0.413062500000D+03-0.870147853105D+00-0.826891586211D-08
    0.957182727646D-10 0.100000000000D+01 0.224500000000D+04 0.000000000000D+00
    0.282842707634D+01 0.000000000000D+00 0.372529029846D-08 0.100000000000D+03
    0.525673000000D+06 0.400000000000D+01 0.000000000000D+00 0.000000000000D+00
 7 23  1 21  4  0  0.0 0.255320221186D-03-0.636646291241D-11 0.000000000000D+00
    0.500000000000D+02 0.106562500000D+02 0.522557480902D-08 0.204296984925D+01
    0.314787030220D-06 0.166157468921D-01 0.524707138538D-05 0.515358540344D+04
    0.532800000000D+06-0.271946191788D-06 0.149042664454D+01-0.357627868652D-06
    0.949961389499D+00 0.274531250000D+03-0.222968587267D+01-0.816391148825D-08
    0.260367988229D-09 0.100000000000D+01 0.224500000000D+04 0.000000000000D+00
    0.200000000000D+01 0.000000000000D+00-0.111758708954D-07 0.500000000000D+02
    0.525618000000D+06 0.400000000000D+01 0.000000000000D+00 0.000000000000D+00
 8 23  1 21  4  0  0.0-0.104581471533D-03-0.181898940355D-11 0.000000000000D+00
    0.770000000000D+02 0.171500000000D+03 0.420910389750D-08-0.138954804309D+01
    0.864639878273D-05 0.819870166015D-02 0.950694084167D-05 0.515365346527D+04
    0.532800000000D+06 0.279396772385D-07-0.272682743931D+01-0.152736902237D-06
    0.960815210290D+00 0.194437500000D+03 0.195407332368D+00-0.785532720591D-08
    0.172864343351D-09 0.100000000000D+01 0.224500000000D+04 0.000000000000D+00
    0.200000000000D+01 0.000000000000D+00 0.512227416039D-08 0.770000000000D+02
    0.525618000000D+06 0.400000000000D+01 0.000000000000D+00 0.000000000000D+00
 9 23  1 21  4  0  0.0-0.232819467783D-03 0.670752342558D-11 0.000000000000D+00
    0.630000000000D+02-0.500000000000D+02 0.437196782429D-08-0.107153750223D+01
   -0.265799462795D-05 0.256360333878D-02 0.117011368275D-04 0.515369039917D+04
    0.532800000000D+06 0.111758708954D-07 0.418729581836D+00 0.260770320892D-07
    0.955820850392D+00 0.152875000000D+03 0.196463270588D+01-0.774746557018D-08
    0.599310677981D-09 0.100000000000D+01 0.224500000000D+04 0.000000000000D+00
    0.200000000000D+01 0.000000000000D+00 0.139698386192D-08 0.630000000000D+02
    0.525618000000D+06 0.400000000000D+01 0.000000000000D+00 0.000000000000D+00
11 23  1 21  4  0  0.0-0.836863182485D-04-0.909494701773D-11 0.000000000000D+00
    0.630000000000D+02 0.179375000000D+02 0.472948271623D-08-0.214011253536D+01
    0.109337270260D-05 0.783112016507D-03-0.122189521790D-05 0.515369761085D+04
    0.532800000000D+06 0.894069671631D-07-0.160261499398D+01-0.391155481338D-07
    0.964391259407D+00 0.403468750000D+03-0.270764683218D+01-0.857249993617D-08
    0.257153568621D-10 0.100000000000D+01 0.224500000000D+04 0.000000000000D+00
    0.200000000000D+01 0.000000000000D+00-0.884756445885D-08 0.575000000000D+03
    0.525674000000D+06 0.400000000000D+01 0.000000000000D+00 0.000000000000D+00
12 23  1 21  4  0  0.0-0.330592971295D-03-0.454747350886D-11 0.000000000000D+00
    0.510000000000D+02 0.166875000000D+02 0.423624788530D-08 0.125652943572D+01
    0.782310962677D-06 0.884916039649D-02 0.106561928988D-04 0.515367569542D+04
    0.532800000000D+06-0.119209289551D-06 0.260507093269D+01-0.596046447754D-07
    0.966685368040D+00 0.178156250000D+03 0.132634235295D+01-0.777996692399D-08
   -0.667527805213D-09 0.100000000000D+01 0.224500000000D+04 0.000000000000D+00
    0.400000000000D+01 0.000000000000D+00-0.125728547573D-07 0.510000000000D+02
    0.525675000000D+06 0.400000000000D+01 0.000000000000D+00 0.000000000000D+00
13 23  1 21  4  0  0.0 0.462856143713D-03 0.636646291241D-11 0.000000000000D+00
    0.560000000000D+02-0.127187500000D+02 0.410695678552D-08-0.188143053626D+01
   -0.679865479469D-06 0.674264831468D-02 0.112131237984D-04 0.515366916466D+04
    0.532800000000D+06 0.838190317154D-07 0.576932170329D+00-0.126659870148D-06
    0.969638139446D+00 0.167843750000D+03 0.943487129969D+00-0.752995651006D-08
    0.675385275365D-09 0.100000000000D+01 0.224500000000D+04 0.000000000000D+00
    0.280000000000D+01 0.000000000000D+00-0.111758708954D-07 0.560000000000D+02
    0.525618000000D+06 0.400000000000D+01 0.000000000000D+00 0.000000000000D+00
14 23  1 21  4  0  0.0-0.450806692243D-04 0.795807864051D-11 0.000000000000D+00
    0.212000000000D+03 0.687500000000D+00 0.474126892145D-08 0.129451108565D+01
    0.465661287308D-07 0.256276945583D-02 0.103283673525D-04 0.515366152000D+04
    0.532800000000D+06-0.670552253723D-07 0.256841706817D+01 0.633299350738D-07
    0.950006609760D+00 0.174437500000D+03-0.307383531328D+01-0.793140180329D-08
   -0.720029992139D-09 0.100000000000D+01 0.224500000000D+04 0.000000000000D+00
    0.200000000000D+01 0.000000000000D+00-0.791624188423D-08 0.724000000000D+03
    0.525622000000D+06 0.400000000000D+01 0.000000000000D+00 0.000000000000D+00
15 23  1 21  4  0  0.0 0.642379745841D-05 0.329691829393D-11 0.000000000000D+00
    0.510000000000D+02-0.525000000000D+02 0.470412451710D-08-0.238072264661D+01
   -0.279024243355D-05 0.147190869320D-01 0.120885670185D-04 0.515367038918D+04
    0.532800000000D+06 0.102445483208D-06 0.303734768892D+00-0.109896063805D-06
    0.932064026311D+00 0.127062500000D+03 0.117469086229D+01-0.768210570482D-08
    0.626454665780D-09 0.100000000000D+01 0.224500000000D+04 0.000000000000D+00
    0.200000000000D+01 0.000000000000D+00-0.107102096081D-07 0.510000000000D+02
    0.529368000000D+06 0.400000000000D+01 0.000000000000D+00 0.000000000000D+00
16 23  1 21  4  0  0.0-0.523185823113D-03 0.125055521494D-11 0.000000000000D+00
    0.870000000000D+02 0.258750000000D+02 0.431089385175D-08-0.570028090838D+00
    0.153109431267D-05 0.133305183845D-01 0.106133520603D-04 0.515377231979D+04
    0.532800000000D+06 0.577419996262D-07 0.262343855528D+01 0.147148966789D-06
    0.966465675780D+00 0.177562500000D+03 0.754253529870D+00-0.786175604512D-08
   -0.707172313708D-09 0.100000000000D+01 0.224500000000D+04 0.000000000000D+00
    0.200000000000D+01 0.000000000000D+00-0.102445483208D-07 0.870000000000D+02
    0.525618000000D+06 0.400000000000D+01 0.000000000000D+00 0.000000000000D+00
